SENTINEL-6A             
1 46984U 20086A   26188.77560647 -.00000058  00000+0  14304-4 0  9993
2 46984  66.0415  92.2915 0007809 269.9492  90.0629 12.80930122262967
SENTINEL-6B             
1 66514U 25264A   26188.77595440 -.00000058  00000+0  14985-4 0  9991
2 66514  66.0415  92.4168 0007881 268.8088  91.2024 12.80930125 29808
